STARLINK-4535           
1 53392U 22097E   26036.84351145 -.00029698  00000+0 -18489-2 0  9997
2 53392  53.2171 267.0848 0003016  78.2523 281.8808 15.08967239193867
STARLINK-4530           
1 53393U 22097F   26036.84722965  .00000898  00000+0  74507-4 0  9994
2 53393  53.2155 267.0662 0001247  93.9696 266.1438 15.08840393193869
STARLINK-4544           
1 53394U 22097G   26036.79290553  .00001102  00000+0  87303-4 0  9999
2 53394  53.2158 256.9235 0001578  87.0477 273.0696 15.08839104194002
STARLINK-4534           
1 53395U 22097H   26036.77461426 -.00001909  00000+0 -10194-3 0  9997
2 53395  53.2171 267.4034 0001316  89.6829 270.4314 15.08823718193697
STARLINK-4524           
1 53396U 22097J   26036.62643424  .00000584  00000+0  54783-4 0  9991
2 53396  53.2185 268.0612 0001571  87.7640 272.3532 15.08838660193678
STARLINK-4515           
1 53397U 22097K   26036.63741470 -.00065846  00000+0 -41406-2 0  9993
2 53397  53.2144 268.0099 0000763  33.7529 326.3511 15.08987811193672
STARLINK-4512           
1 53398U 22097L   26036.61906996 -.00000263  00000+0  15330-5 0  9999
2 53398  53.2179 268.0937 0001048  96.6057 263.5055 15.08841943193673
STARLINK-4528           
1 53399U 22097M   26036.03395257  .00000760  00000+0  65864-4 0  9995
2 53399  53.2166 270.7217 0001376  88.8683 271.2467 15.08839861193582
STARLINK-4520           
1 53400U 22097N   26036.80675403  .00000765  00000+0  66147-4 0  9997
2 53400  53.2179 267.2512 0001438  92.4466 267.6691 15.08837293193706
STARLINK-4525           
1 53401U 22097P   26036.62275951  .00003892  00000+0  26247-3 0  9992
2 53401  53.2167 268.0768 0001387 103.5579 256.5567 15.08843378193674
STARLINK-4499           
1 53402U 22097Q   26036.80307061 -.00000089  00000+0  12496-4 0  9999
2 53402  53.2173 267.2667 0000406 126.4679 233.6351 15.08831213193703
STARLINK-4507           
1 53403U 22097R   26036.84823229  .00000464  00000+0  47259-4 0  9994
2 53403  53.2164 267.4064 0001334  92.6993 267.4152 15.08836444193706
STARLINK-4509           
1 53404U 22097S   26036.85278654  .00000440  00000+0  45739-4 0  9997
2 53404  53.2174 256.9774 0001524  89.5417 270.5750 15.08834350193844
STARLINK-4510           
1 53405U 22097T   26036.79940078  .00000409  00000+0  43814-4 0  9994
2 53405  53.2172 267.2820 0001559 109.6526 250.4635 15.08831476193703
STARLINK-4533           
1 53406U 22097U   26036.77455056  .00001031  00000+0  82847-4 0  9991
2 53406  53.2162 257.3944 0001302  86.2404 273.8737 15.08840357193835
STARLINK-4491           
1 53408U 22097W   26036.85183243  .00000774  00000+0  66724-4 0  9997
2 53408  53.2164 257.0533 0001317  90.5122 269.6021 15.08841365193841
STARLINK-4490           
1 53409U 22097X   26036.84541281  .00002305  00000+0  16284-3 0  9994
2 53409  53.2163 247.2724 0001749  87.4821 272.6371 15.08844340193987
