[{"OBJECT_NAME":"STARLINK-4535","OBJECT_ID":"2022-097E","EPOCH":"2026-02-05T20:14:39.389280","MEAN_MOTION":15.08967239,"ECCENTRICITY":0.0003016,"INCLINATION":53.2171,"RA_OF_ASC_NODE":267.0848,"ARG_OF_PERICENTER":78.2523,"MEAN_ANOMALY":281.8808,"EPHEMERIS_TYPE":0,"CLASSIFICATION_TYPE":"U","NORAD_CAT_ID":53392,"ELEMENT_SET_NO":999,"REV_AT_EPOCH":19386,"BSTAR":-0.0018489,"MEAN_MOTION_DOT":-0.00029698,"MEAN_MOTION_DDOT":0},{"OBJECT_NAME":"STARLINK-4530","OBJECT_ID":"2022-097F","EPOCH":"2026-02-05T20:20:00.641760","MEAN_MOTION":15.08840393,"ECCENTRICITY":0.0001247,"INCLINATION":53.2155,"RA_OF_ASC_NODE":267.0662,"ARG_OF_PERICENTER":93.9696,"MEAN_ANOMALY":266.1438,"EPHEMERIS_TYPE":0,"CLASSIFICATION_TYPE":"U","NORAD_CAT_ID":53393,"ELEMENT_SET_NO":999,"REV_AT_EPOCH":19386,"BSTAR":7.4507e-5,"MEAN_MOTION_DOT":8.98e-6,"MEAN_MOTION_DDOT":0},{"OBJECT_NAME":"STARLINK-4544","OBJECT_ID":"2022-097G","EPOCH":"2026-02-05T19:01:47.037792","MEAN_MOTION":15.08839104,"ECCENTRICITY":0.0001578,"INCLINATION":53.2158,"RA_OF_ASC_NODE":256.9235,"ARG_OF_PERICENTER":87.0477,"MEAN_ANOMALY":273.0696,"EPHEMERIS_TYPE":0,"CLASSIFICATION_TYPE":"U","NORAD_CAT_ID":53394,"ELEMENT_SET_NO":999,"REV_AT_EPOCH":19400,"BSTAR":8.7303e-5,"MEAN_MOTION_DOT":1.102e-5,"MEAN_MOTION_DDOT":0},{"OBJECT_NAME":"STARLINK-4534","OBJECT_ID":"2022-097H","EPOCH":"2026-02-05T18:35:26.672064","MEAN_MOTION":15.08823718,"ECCENTRICITY":0.0001316,"INCLINATION":53.2171,"RA_OF_ASC_NODE":267.4034,"ARG_OF_PERICENTER":89.6829,"MEAN_ANOMALY":270.4314,"EPHEMERIS_TYPE":0,"CLASSIFICATION_TYPE":"U","NORAD_CAT_ID":53395,"ELEMENT_SET_NO":999,"REV_AT_EPOCH":19369,"BSTAR":-0.00010194,"MEAN_MOTION_DOT":-1.909e-5,"MEAN_MOTION_DDOT":0},{"OBJECT_NAME":"STARLINK-4524","OBJECT_ID":"2022-097J","EPOCH":"2026-02-05T15:02:03.918336","MEAN_MOTION":15.0883866,"ECCENTRICITY":0.0001571,"INCLINATION":53.2185,"RA_OF_ASC_NODE":268.0612,"ARG_OF_PERICENTER":87.764,"MEAN_ANOMALY":272.3532,"EPHEMERIS_TYPE":0,"CLASSIFICATION_TYPE":"U","NORAD_CAT_ID":53396,"ELEMENT_SET_NO":999,"REV_AT_EPOCH":19367,"BSTAR":5.4783e-5,"MEAN_MOTION_DOT":5.84e-6,"MEAN_MOTION_DDOT":0},{"OBJECT_NAME":"STARLINK-4515","OBJECT_ID":"2022-097K","EPOCH":"2026-02-05T15:17:52.630080","MEAN_MOTION":15.08987811,"ECCENTRICITY":7.63e-5,"INCLINATION":53.2144,"RA_OF_ASC_NODE":268.0099,"ARG_OF_PERICENTER":33.7529,"MEAN_ANOMALY":326.3511,"EPHEMERIS_TYPE":0,"CLASSIFICATION_TYPE":"U","NORAD_CAT_ID":53397,"ELEMENT_SET_NO":999,"REV_AT_EPOCH":19367,"BSTAR":-0.0041406,"MEAN_MOTION_DOT":-0.00065846,"MEAN_MOTION_DDOT":0},{"OBJECT_NAME":"STARLINK-4512","OBJECT_ID":"2022-097L","EPOCH":"2026-02-05T14:51:27.644544","MEAN_MOTION":15.08841943,"ECCENTRICITY":0.0001048,"INCLINATION":53.2179,"RA_OF_ASC_NODE":268.0937,"ARG_OF_PERICENTER":96.6057,"MEAN_ANOMALY":263.5055,"EPHEMERIS_TYPE":0,"CLASSIFICATION_TYPE":"U","NORAD_CAT_ID":53398,"ELEMENT_SET_NO":999,"REV_AT_EPOCH":19367,"BSTAR":1.533e-6,"MEAN_MOTION_DOT":-2.63e-6,"MEAN_MOTION_DDOT":0},{"OBJECT_NAME":"STARLINK-4528","OBJECT_ID":"2022-097M","EPOCH":"2026-02-05T00:48:53.502048","MEAN_MOTION":15.08839861,"ECCENTRICITY":0.00013767,"INCLINATION":53.2166,"RA_OF_ASC_NODE":270.7217,"ARG_OF_PERICENTER":88.8683,"MEAN_ANOMALY":271.2467,"EPHEMERIS_TYPE":0,"CLASSIFICATION_TYPE":"U","NORAD_CAT_ID":53399,"ELEMENT_SET_NO":999,"REV_AT_EPOCH":19358,"BSTAR":6.5863706e-5,"MEAN_MOTION_DOT":7.6e-6,"MEAN_MOTION_DDOT":0},{"OBJECT_NAME":"STARLINK-4520","OBJECT_ID":"2022-097N","EPOCH":"2026-02-05T19:21:43.548192","MEAN_MOTION":15.08837293,"ECCENTRICITY":0.0001438,"INCLINATION":53.2179,"RA_OF_ASC_NODE":267.2512,"ARG_OF_PERICENTER":92.4466,"MEAN_ANOMALY":267.6691,"EPHEMERIS_TYPE":0,"CLASSIFICATION_TYPE":"U","NORAD_CAT_ID":53400,"ELEMENT_SET_NO":999,"REV_AT_EPOCH":19370,"BSTAR":6.6147e-5,"MEAN_MOTION_DOT":7.65e-6,"MEAN_MOTION_DDOT":0},{"OBJECT_NAME":"STARLINK-4525","OBJECT_ID":"2022-097P","EPOCH":"2026-02-05T14:56:46.421664","MEAN_MOTION":15.08843378,"ECCENTRICITY":0.0001387,"INCLINATION":53.2167,"RA_OF_ASC_NODE":268.0768,"ARG_OF_PERICENTER":103.5579,"MEAN_ANOMALY":256.5567,"EPHEMERIS_TYPE":0,"CLASSIFICATION_TYPE":"U","NORAD_CAT_ID":53401,"ELEMENT_SET_NO":999,"REV_AT_EPOCH":19367,"BSTAR":0.00026247,"MEAN_MOTION_DOT":3.892e-5,"MEAN_MOTION_DDOT":0},{"OBJECT_NAME":"STARLINK-4499","OBJECT_ID":"2022-097Q","EPOCH":"2026-02-05T19:16:25.300704","MEAN_MOTION":15.08831213,"ECCENTRICITY":4.06e-5,"INCLINATION":53.2173,"RA_OF_ASC_NODE":267.2667,"ARG_OF_PERICENTER":126.4679,"MEAN_ANOMALY":233.6351,"EPHEMERIS_TYPE":0,"CLASSIFICATION_TYPE":"U","NORAD_CAT_ID":53402,"ELEMENT_SET_NO":999,"REV_AT_EPOCH":19370,"BSTAR":1.2496e-5,"MEAN_MOTION_DOT":-8.9e-7,"MEAN_MOTION_DDOT":0},{"OBJECT_NAME":"STARLINK-4507","OBJECT_ID":"2022-097R","EPOCH":"2026-02-05T20:21:27.269856","MEAN_MOTION":15.08836444,"ECCENTRICITY":0.0001334,"INCLINATION":53.2164,"RA_OF_ASC_NODE":267.4064,"ARG_OF_PERICENTER":92.6993,"MEAN_ANOMALY":267.4152,"EPHEMERIS_TYPE":0,"CLASSIFICATION_TYPE":"U","NORAD_CAT_ID":53403,"ELEMENT_SET_NO":999,"REV_AT_EPOCH":19370,"BSTAR":4.7259e-5,"MEAN_MOTION_DOT":4.64e-6,"MEAN_MOTION_DDOT":0},{"OBJECT_NAME":"STARLINK-4509","OBJECT_ID":"2022-097S","EPOCH":"2026-02-05T20:28:00.757056","MEAN_MOTION":15.0883435,"ECCENTRICITY":0.0001524,"INCLINATION":53.2174,"RA_OF_ASC_NODE":256.9774,"ARG_OF_PERICENTER":89.5417,"MEAN_ANOMALY":270.575,"EPHEMERIS_TYPE":0,"CLASSIFICATION_TYPE":"U","NORAD_CAT_ID":53404,"ELEMENT_SET_NO":999,"REV_AT_EPOCH":19384,"BSTAR":4.5739e-5,"MEAN_MOTION_DOT":4.4e-6,"MEAN_MOTION_DDOT":0},{"OBJECT_NAME":"STARLINK-4510","OBJECT_ID":"2022-097T","EPOCH":"2026-02-05T19:11:08.227392","MEAN_MOTION":15.08831476,"ECCENTRICITY":0.0001559,"INCLINATION":53.2172,"RA_OF_ASC_NODE":267.282,"ARG_OF_PERICENTER":109.6526,"MEAN_ANOMALY":250.4635,"EPHEMERIS_TYPE":0,"CLASSIFICATION_TYPE":"U","NORAD_CAT_ID":53405,"ELEMENT_SET_NO":999,"REV_AT_EPOCH":19370,"BSTAR":4.3814e-5,"MEAN_MOTION_DOT":4.09e-6,"MEAN_MOTION_DDOT":0},{"OBJECT_NAME":"STARLINK-4533","OBJECT_ID":"2022-097U","EPOCH":"2026-02-05T18:35:21.168384","MEAN_MOTION":15.08840357,"ECCENTRICITY":0.0001302,"INCLINATION":53.2162,"RA_OF_ASC_NODE":257.3944,"ARG_OF_PERICENTER":86.2404,"MEAN_ANOMALY":273.8737,"EPHEMERIS_TYPE":0,"CLASSIFICATION_TYPE":"U","NORAD_CAT_ID":53406,"ELEMENT_SET_NO":999,"REV_AT_EPOCH":19383,"BSTAR":8.2847e-5,"MEAN_MOTION_DOT":1.031e-5,"MEAN_MOTION_DDOT":0},{"OBJECT_NAME":"STARLINK-4491","OBJECT_ID":"2022-097W","EPOCH":"2026-02-05T20:26:38.321952","MEAN_MOTION":15.08841365,"ECCENTRICITY":0.0001317,"INCLINATION":53.2164,"RA_OF_ASC_NODE":257.0533,"ARG_OF_PERICENTER":90.5122,"MEAN_ANOMALY":269.6021,"EPHEMERIS_TYPE":0,"CLASSIFICATION_TYPE":"U","NORAD_CAT_ID":53408,"ELEMENT_SET_NO":999,"REV_AT_EPOCH":19384,"BSTAR":6.6724e-5,"MEAN_MOTION_DOT":7.74e-6,"MEAN_MOTION_DDOT":0},{"OBJECT_NAME":"STARLINK-4490","OBJECT_ID":"2022-097X","EPOCH":"2026-02-05T20:17:23.666784","MEAN_MOTION":15.0884434,"ECCENTRICITY":0.0001749,"INCLINATION":53.2163,"RA_OF_ASC_NODE":247.2724,"ARG_OF_PERICENTER":87.4821,"MEAN_ANOMALY":272.6371,"EPHEMERIS_TYPE":0,"CLASSIFICATION_TYPE":"U","NORAD_CAT_ID":53409,"ELEMENT_SET_NO":999,"REV_AT_EPOCH":19398,"BSTAR":0.00016284,"MEAN_MOTION_DOT":2.305e-5,"MEAN_MOTION_DDOT":0}]
